H1 CPF  1  DLR 2021 12 09 10  8432 technosat            
H2  1704205 6203    42829 2021 12 09 00 00 00 2021 12 16 00 00 00    60 1 1  0 0 0
H9
10 0 59557      0.000000  0       4069565.623      -5433647.883       1610476.304
10 0 59557     60.000000  0       4050622.071      -5559109.439       1170055.159
10 0 59557    120.000000  0       4013634.788      -5660927.603        724673.192
10 0 59557    180.000000  0       3958966.855      -5738514.830        276218.227
10 0 59557    240.000000  0       3887061.197      -5791389.945       -173408.316
10 0 59557    300.000000  0       3798437.788      -5819180.993       -622299.780
10 0 59557    360.000000  0       3693690.426      -5821627.484      -1068552.638
10 0 59557    420.000000  0       3573483.169      -5798582.077      -1510274.751
10 0 59557    480.000000  0       3438546.499      -5750011.762      -1945593.560
10 0 59557    540.000000  0       3289673.186      -5675998.530      -2372664.224
10 0 59557    600.000000  0       3127713.834      -5576739.454      -2789677.671
10 0 59557    660.000000  0       2953572.135      -5452546.166      -3194868.422
10 0 59557    720.000000  0       2768199.918      -5303843.785      -3586522.163
10 0 59557    780.000000  0       2572591.986      -5131169.317      -3962983.062
10 0 59557    840.000000  0       2367780.795      -4935169.526      -4322660.759
10 0 59557    900.000000  0       2154831.020      -4716598.277      -4664037.039
10 0 59557    960.000000  0       1934834.056      -4476313.387      -4985672.118
10 0 59557   1020.000000  0       1708902.490      -4215273.029      -5286210.577
10 0 59557   1080.000000  0       1478164.506      -3934531.694      -5564386.910
10 0 59557   1140.000000  0       1243758.279      -3635235.742      -5819030.658
10 0 59557   1200.000000  0       1006826.386      -3318618.553      -6049071.117
10 0 59557   1260.000000  0        768510.257      -2985995.315      -6253541.630
10 0 59557   1320.000000  0        529944.711      -2638757.425      -6431583.428
10 0 59557   1380.000000  0        292252.612      -2278366.565      -6582449.009
10 0 59557   1440.000000  0         56539.652      -1906348.485      -6705505.052
10 0 59557   1500.000000  0       -176110.706      -1524286.526      -6800234.879
10 0 59557   1560.000000  0       -404642.102      -1133814.884      -6866240.479
10 0 59557   1620.000000  0       -628029.993       -736611.656      -6903244.050
10 0 59557   1680.000000  0       -845286.191       -334391.692      -6911089.073
10 0 59557   1740.000000  0      -1055463.200         71100.708      -6889740.896
10 0 59557   1800.000000  0      -1257658.314        478099.213      -6839286.886
10 0 59557   1860.000000  0      -1451017.460        884823.056      -6759936.170
10 0 59557   1920.000000  0      -1634738.768       1289484.787      -6652018.835
10 0 59557   1980.000000  0      -1808075.860       1690297.983      -6515984.644
10 0 59557   2040.000000  0      -1970340.888       2085485.004      -6352401.429
10 0 59557   2100.000000  0      -2120907.341       2473284.893      -6161953.024
10 0 59557   2160.000000  0      -2259212.516       2851961.276      -5945436.584
10 0 59557   2220.000000  0      -2384759.624       3219810.129      -5703759.493
10 0 59557   2280.000000  0      -2497119.633       3575167.531      -5437935.891
10 0 59557   2340.000000  0      -2595932.809       3916417.348      -5149082.681
10 0 59557   2400.000000  0      -2680909.903       4241998.770      -4838415.049
10 0 59557   2460.000000  0      -2751832.978       4550413.660      -4507241.526
10 0 59557   2520.000000  0      -2808555.878       4840233.664      -4156958.619
10 0 59557   2580.000000  0      -2851004.312       5110107.027      -3789044.995
10 0 59557   2640.000000  0      -2879175.572       5358765.058      -3405055.376
10 0 59557   2700.000000  0      -2893137.939       5585028.382      -3006614.130
10 0 59557   2760.000000  0      -2893029.740       5787812.864      -2595408.432
10 0 59557   2820.000000  0      -2879058.045       5966135.118      -2173181.059
10 0 59557   2880.000000  0      -2851496.957       6119117.542      -1741722.844
10 0 59557   2940.000000  0      -2810685.544       6245992.774      -1302864.892
10 0 59557   3000.000000  0      -2757025.496       6346107.634       -858470.683
10 0 59557   3060.000000  0      -2690978.485       6418926.615       -410428.072
10 0 59557   3120.000000  0      -2613063.267       6464034.990         39358.943
10 0 59557   3180.000000  0      -2523852.432       6481141.232        488978.728
10 0 59557   3240.000000  0      -2423968.815       6470078.727        936520.546
10 0 59557   3300.000000  0      -2314081.641       6430806.783       1380083.031
10 0 59557   3360.000000  0      -2194902.477       6363411.028       1817782.510
10 0 59557   3420.000000  0      -2067181.009       6268103.241       2247761.228
10 0 59557   3480.000000  0      -1931700.654       6145220.549       2668195.428
10 0 59557   3540.000000  0      -1789274.044       5995224.025       3077303.205
10 0 59557   3600.000000  0      -1640738.428       5818696.749       3473352.145
10 0 59557   3660.000000  0      -1486950.986       5616341.274       3854666.755
10 0 59557   3720.000000  0      -1328784.112       5388976.514       4219635.552
10 0 59557   3780.000000  0      -1167120.669       5137534.152       4566717.923
10 0 59557   3840.000000  0      -1002849.124       4863054.391       4894450.595
10 0 59557   3900.000000  0       -836858.759       4566681.276       5201453.553
10 0 59557   3960.000000  0       -670035.033       4249657.695       5486435.611
10 0 59557   4020.000000  0       -503255.046       3913319.941       5748199.696
10 0 59557   4080.000000  0       -337383.051       3559091.794       5985647.707
10 0 59557   4140.000000  0       -173266.091       3188478.194       6197784.820
10 0 59557   4200.000000  0        -11729.813       2803058.711       6383723.323
10 0 59557   4260.000000  0        146425.550       2404480.741       6542686.086
10 0 59557   4320.000000  0        300429.050       1994452.383       6674009.584
10 0 59557   4380.000000  0        449542.684       1574735.034       6777146.436
10 0 59557   4440.000000  0        593064.827       1147135.803       6851667.413
10 0 59557   4500.000000  0        730333.438        713499.808       6897262.995
10 0 59557   4560.000000  0        860729.041        275702.351       6913744.531
10 0 59557   4620.000000  0        983677.462       -164359.069       6901044.985
10 0 59557   4680.000000  0       1098652.297       -604772.917       6859219.219
10 0 59557   4740.000000  0       1205177.141      -1043621.856       6788443.711
10 0 59557   4800.000000  0       1302827.547      -1478990.936       6689015.849
10 0 59557   4860.000000  0       1391232.684      -1908975.863       6561352.824
10 0 59557   4920.000000  0       1470076.737      -2331691.280       6405990.004
10 0 59557   4980.000000  0       1539100.029      -2745278.987       6223578.852
10 0 59557   5040.000000  0       1598099.808      -3147916.116       6014884.386
10 0 59557   5100.000000  0       1646930.751      -3537823.174       5780782.138
10 0 59557   5160.000000  0       1685505.184      -3913271.906       5522254.682
10 0 59557   5220.000000  0       1713793.022      -4272592.969       5240387.733
10 0 59557   5280.000000  0       1731821.422      -4614183.433       4936365.896
10 0 59557   5340.000000  0       1739674.154      -4936514.121       4611467.978
10 0 59557   5400.000000  0       1737490.670      -5238136.723       4267061.858
10 0 59557   5460.000000  0       1725464.891      -5517690.604       3904598.846
10 0 59557   5520.000000  0       1703843.655      -5773909.166       3525607.631
10 0 59557   5580.000000  0       1672924.884      -6005625.793       3131687.916
10 0 59557   5640.000000  0       1633055.495      -6211779.412       2724503.752
10 0 59557   5700.000000  0       1584629.087      -6391419.612       2305776.562
10 0 59557   5760.000000  0       1528083.378      -6543711.327       1877277.881
10 0 59557   5820.000000  0       1463897.352      -6667939.022       1440821.809
10 0 59557   5880.000000  0       1392588.223      -6763510.280        998257.184
10 0 59557   5940.000000  0       1314708.201      -6829958.811        551459.645
10 0 59557   6000.000000  0       1230841.033      -6866947.010        102323.508
10 0 59557   6060.000000  0       1141598.322      -6874267.809       -347246.617
10 0 59557   6120.000000  0       1047615.740      -6851845.768       -795344.194
10 0 59557   6180.000000  0        949549.164      -6799737.514      -1240069.090
10 0 59557   6240.000000  0        848070.676      -6718131.568      -1679535.818
10 0 59557   6300.000000  0        743864.530      -6607347.546      -2111881.695
10 0 59557   6360.000000  0        637623.102      -6467834.788      -2535274.911
10 0 59557   6420.000000  0        530042.808      -6300170.359      -2947922.431
10 0 59557   6480.000000  0        421820.031      -6105056.465      -3348077.725
10 0 59557   6540.000000  0        313647.056      -5883317.244      -3734048.265
10 0 59557   6600.000000  0        206208.063      -5635894.967      -4104202.740
10 0 59557   6660.000000  0        100175.187      -5363845.695      -4456977.911
10 0 59557   6720.000000  0         -3795.295      -5068334.476      -4790885.114
10 0 59557   6780.000000  0       -105066.658      -4750630.096      -5104516.442
10 0 59557   6840.000000  0       -203025.299      -4412099.358      -5396550.566
10 0 59557   6900.000000  0       -297084.122      -4054200.928      -5665758.137
10 0 59557   6960.000000  0       -386685.755      -3678478.810      -5911006.747
10 0 59557   7020.000000  0       -471305.554      -3286555.513      -6131265.471
10 0 59557   7080.000000  0       -550454.426      -2880124.882      -6325608.984
10 0 59557   7140.000000  0       -623681.426      -2460944.654      -6493221.209
99
